{
    "links": {
        "self": "http://www.neowsapp.com/rest/v1/neo/3647196?api_key=iIulBulltgU6a56xZRHN4H3l9WmuAYTsLGpBGhQ2"
    },
    "id": "3647196",
    "neo_reference_id": "3647196",
    "name": "(2013 RO9)",
    "designation": "2013 RO9",
    "nasa_jpl_url": "http://ssd.jpl.nasa.gov/sbdb.cgi?sstr=3647196",
    "absolute_magnitude_h": 23.5,
    "estimated_diameter": {
        "kilometers": {
            "estimated_diameter_min": 0.0530340723,
            "estimated_diameter_max": 0.1185877909
        },
        "meters": {
            "estimated_diameter_min": 53.0340723319,
            "estimated_diameter_max": 118.5877908577
        },
        "miles": {
            "estimated_diameter_min": 0.0329538346,
            "estimated_diameter_max": 0.0736870142
        },
        "feet": {
            "estimated_diameter_min": 173.9963058693,
            "estimated_diameter_max": 389.0675677576
        }
    },
    "is_potentially_hazardous_asteroid": false,
    "close_approach_data": [
        {
            "close_approach_date": "2012-10-19",
            "close_approach_date_full": "2012-Oct-19 06:20",
            "epoch_date_close_approach": 1350627600000,
            "relative_velocity": {
                "kilometers_per_second": "10.3516507868",
                "kilometers_per_hour": "37265.9428324346",
                "miles_per_hour": "23155.6076449647"
            },
            "miss_distance": {
                "astronomical": "0.4781697744",
                "lunar": "186.0080422416",
                "kilometers": "71533179.748620528",
                "miles": "44448656.7841901664"
            },
            "orbiting_body": "Earth"
        },
        {
            "close_approach_date": "2013-08-03",
            "close_approach_date_full": "2013-Aug-03 03:49",
            "epoch_date_close_approach": 1375501740000,
            "relative_velocity": {
                "kilometers_per_second": "7.086631785",
                "kilometers_per_hour": "25511.8744259352",
                "miles_per_hour": "15852.0866398263"
            },
            "miss_distance": {
                "astronomical": "0.185747334",
                "lunar": "72.255712926",
                "kilometers": "27787405.52457858",
                "miles": "17266293.144321204"
            },
            "orbiting_body": "Earth"
        },
        {
            "close_approach_date": "2046-10-22",
            "close_approach_date_full": "2046-Oct-22 05:17",
            "epoch_date_close_approach": 2423798220000,
            "relative_velocity": {
                "kilometers_per_second": "10.362137667",
                "kilometers_per_hour": "37303.6956012817",
                "miles_per_hour": "23179.0657473631"
            },
            "miss_distance": {
                "astronomical": "0.4818692281",
                "lunar": "187.4471297309",
                "kilometers": "72086610.142304147",
                "miles": "44792542.4846333486"
            },
            "orbiting_body": "Earth"
        }
    ],
    "orbital_data": {
        "orbit_id": "4",
        "orbit_determination_date": "2017-04-06 08:44:53",
        "first_observation_date": "2013-09-02",
        "last_observation_date": "2013-09-04",
        "data_arc_in_days": 2,
        "observations_used": 15,
        "orbit_uncertainty": "9",
        "minimum_orbit_intersection": ".0888084",
        "jupiter_tisserand_invariant": "5.640",
        "epoch_osculation": "2456538.5",
        "eccentricity": ".3480894318486759",
        "semi_major_axis": "1.086169403205456",
        "inclination": "7.445138113820262",
        "ascending_node_longitude": "169.7216601098252",
        "orbital_period": "413.4707330613257",
        "perihelion_distance": ".7080853127522536",
        "perihelion_argument": "36.47482063220519",
        "aphelion_distance": "1.464253493658659",
        "perihelion_time": "2456424.606402693598",
        "mean_anomaly": "99.1646850714906",
        "mean_motion": ".8706783121856535",
        "equinox": "J2000",
        "orbit_class": {
            "orbit_class_type": "APO",
            "orbit_class_description": "Near-Earth asteroid orbits which cross the Earth’s orbit similar to that of 1862 Apollo",
            "orbit_class_range": "a (semi-major axis) > 1.0 AU; q (perihelion) < 1.017 AU"
        }
    },
    "is_sentry_object": false
}